[{"OBJECT_NAME":"STARLINK-36889","OBJECT_ID":"2026-039W","EPOCH":"2026-03-23T22:00:00.999936","MEAN_MOTION":15.50535328,"ECCENTRICITY":0.00012819,"INCLINATION":43.0001,"RA_OF_ASC_NODE":329.4489,"ARG_OF_PERICENTER":274.5256,"MEAN_ANOMALY":288.7168,"EPHEMERIS_TYPE":0,"CLASSIFICATION_TYPE":"U","NORAD_CAT_ID":68006,"ELEMENT_SET_NO":999,"REV_AT_EPOCH":516,"BSTAR":0.00082281764,"MEAN_MOTION_DOT":0.00048151,"MEAN_MOTION_DDOT":0},{"OBJECT_NAME":"STARLINK-36592","OBJECT_ID":"2026-039X","EPOCH":"2026-03-23T22:00:00.999936","MEAN_MOTION":15.48762692,"ECCENTRICITY":0.00014505,"INCLINATION":42.9996,"RA_OF_ASC_NODE":329.1488,"ARG_OF_PERICENTER":264.6712,"MEAN_ANOMALY":59.8873,"EPHEMERIS_TYPE":0,"CLASSIFICATION_TYPE":"U","NORAD_CAT_ID":68007,"ELEMENT_SET_NO":999,"REV_AT_EPOCH":516,"BSTAR":-0.039815386,"MEAN_MOTION_DOT":-0.01960268,"MEAN_MOTION_DDOT":0},{"OBJECT_NAME":"STARLINK-36911","OBJECT_ID":"2026-039Y","EPOCH":"2026-03-23T22:00:00.999936","MEAN_MOTION":15.50552624,"ECCENTRICITY":0.00014157,"INCLINATION":42.9999,"RA_OF_ASC_NODE":329.235,"ARG_OF_PERICENTER":279.7363,"MEAN_ANOMALY":9.8956,"EPHEMERIS_TYPE":0,"CLASSIFICATION_TYPE":"U","NORAD_CAT_ID":68008,"ELEMENT_SET_NO":999,"REV_AT_EPOCH":516,"BSTAR":0.00076988319,"MEAN_MOTION_DOT":0.00045041,"MEAN_MOTION_DDOT":0},{"OBJECT_NAME":"STARLINK-36956","OBJECT_ID":"2026-039Z","EPOCH":"2026-03-23T22:00:00.999936","MEAN_MOTION":15.50540179,"ECCENTRICITY":0.00020136,"INCLINATION":42.9999,"RA_OF_ASC_NODE":329.3011,"ARG_OF_PERICENTER":267.0037,"MEAN_ANOMALY":355.742,"EPHEMERIS_TYPE":0,"CLASSIFICATION_TYPE":"U","NORAD_CAT_ID":68009,"ELEMENT_SET_NO":999,"REV_AT_EPOCH":516,"BSTAR":0.00085316069,"MEAN_MOTION_DOT":0.00049961,"MEAN_MOTION_DDOT":0},{"OBJECT_NAME":"STARLINK-36953","OBJECT_ID":"2026-039AA","EPOCH":"2026-03-23T22:00:00.999936","MEAN_MOTION":15.47313,"ECCENTRICITY":0.00016418,"INCLINATION":42.9992,"RA_OF_ASC_NODE":328.7945,"ARG_OF_PERICENTER":263.2006,"MEAN_ANOMALY":204.6056,"EPHEMERIS_TYPE":0,"CLASSIFICATION_TYPE":"U","NORAD_CAT_ID":68010,"ELEMENT_SET_NO":999,"REV_AT_EPOCH":516,"BSTAR":-0.040942715,"MEAN_MOTION_DOT":-0.01920006,"MEAN_MOTION_DDOT":0},{"OBJECT_NAME":"STARLINK-36991","OBJECT_ID":"2026-039AB","EPOCH":"2026-03-23T09:40:56.519616","MEAN_MOTION":15.506431,"ECCENTRICITY":0.00024585,"INCLINATION":42.9999,"RA_OF_ASC_NODE":332.977,"ARG_OF_PERICENTER":277.1227,"MEAN_ANOMALY":82.9353,"EPHEMERIS_TYPE":0,"CLASSIFICATION_TYPE":"U","NORAD_CAT_ID":68011,"ELEMENT_SET_NO":999,"REV_AT_EPOCH":378,"BSTAR":0.0010955133,"MEAN_MOTION_DOT":0.0006461,"MEAN_MOTION_DDOT":0},{"OBJECT_NAME":"STARLINK-36936","OBJECT_ID":"2026-039AC","EPOCH":"2026-03-23T22:00:00.999936","MEAN_MOTION":15.50538969,"ECCENTRICITY":0.00016629,"INCLINATION":42.9999,"RA_OF_ASC_NODE":329.2613,"ARG_OF_PERICENTER":275.0017,"MEAN_ANOMALY":3.1752,"EPHEMERIS_TYPE":0,"CLASSIFICATION_TYPE":"U","NORAD_CAT_ID":68012,"ELEMENT_SET_NO":999,"REV_AT_EPOCH":516,"BSTAR":0.00083879732,"MEAN_MOTION_DOT":0.00049106,"MEAN_MOTION_DDOT":0},{"OBJECT_NAME":"STARLINK-36967","OBJECT_ID":"2026-039AD","EPOCH":"2026-03-23T23:28:03.886464","MEAN_MOTION":15.50620635,"ECCENTRICITY":4.017e-5,"INCLINATION":43.0002,"RA_OF_ASC_NODE":329.5429,"ARG_OF_PERICENTER":224.4399,"MEAN_ANOMALY":135.6429,"EPHEMERIS_TYPE":0,"CLASSIFICATION_TYPE":"U","NORAD_CAT_ID":68013,"ELEMENT_SET_NO":999,"REV_AT_EPOCH":387,"BSTAR":0.0015915598,"MEAN_MOTION_DOT":0.00094299,"MEAN_MOTION_DDOT":0},{"OBJECT_NAME":"STARLINK-36985","OBJECT_ID":"2026-039AE","EPOCH":"2026-03-23T22:00:00.999936","MEAN_MOTION":15.48329546,"ECCENTRICITY":0.00013151,"INCLINATION":42.9992,"RA_OF_ASC_NODE":328.7338,"ARG_OF_PERICENTER":275.5114,"MEAN_ANOMALY":216.5821,"EPHEMERIS_TYPE":0,"CLASSIFICATION_TYPE":"U","NORAD_CAT_ID":68014,"ELEMENT_SET_NO":999,"REV_AT_EPOCH":516,"BSTAR":-0.038965775,"MEAN_MOTION_DOT":-0.01896343,"MEAN_MOTION_DDOT":0},{"OBJECT_NAME":"STARLINK-36335","OBJECT_ID":"2026-040A","EPOCH":"2026-03-23T22:00:00.999936","MEAN_MOTION":15.75128546,"ECCENTRICITY":0.00013805,"INCLINATION":97.2862,"RA_OF_ASC_NODE":32.0592,"ARG_OF_PERICENTER":115.4701,"MEAN_ANOMALY":278.9167,"EPHEMERIS_TYPE":0,"CLASSIFICATION_TYPE":"U","NORAD_CAT_ID":68015,"ELEMENT_SET_NO":999,"REV_AT_EPOCH":466,"BSTAR":0.00078664905,"MEAN_MOTION_DOT":0.0011853,"MEAN_MOTION_DDOT":0},{"OBJECT_NAME":"STARLINK-36923","OBJECT_ID":"2026-040B","EPOCH":"2026-03-23T22:00:00.999936","MEAN_MOTION":15.75233039,"ECCENTRICITY":0.00013864,"INCLINATION":97.2865,"RA_OF_ASC_NODE":32.0626,"ARG_OF_PERICENTER":75.3548,"MEAN_ANOMALY":325.0147,"EPHEMERIS_TYPE":0,"CLASSIFICATION_TYPE":"U","NORAD_CAT_ID":68016,"ELEMENT_SET_NO":999,"REV_AT_EPOCH":471,"BSTAR":-9.9066592e-5,"MEAN_MOTION_DOT":-0.00014908,"MEAN_MOTION_DDOT":0},{"OBJECT_NAME":"STARLINK-36568","OBJECT_ID":"2026-040C","EPOCH":"2026-03-23T22:00:00.999936","MEAN_MOTION":15.75237427,"ECCENTRICITY":0.0001273,"INCLINATION":97.2866,"RA_OF_ASC_NODE":32.0638,"ARG_OF_PERICENTER":89.3215,"MEAN_ANOMALY":315.0427,"EPHEMERIS_TYPE":0,"CLASSIFICATION_TYPE":"U","NORAD_CAT_ID":68017,"ELEMENT_SET_NO":999,"REV_AT_EPOCH":471,"BSTAR":-6.67088e-5,"MEAN_MOTION_DOT":-0.00010088,"MEAN_MOTION_DDOT":0},{"OBJECT_NAME":"STARLINK-36930","OBJECT_ID":"2026-040D","EPOCH":"2026-03-23T22:00:00.999936","MEAN_MOTION":15.75187835,"ECCENTRICITY":0.0001753,"INCLINATION":97.2861,"RA_OF_ASC_NODE":32.0603,"ARG_OF_PERICENTER":127.0306,"MEAN_ANOMALY":269.3151,"EPHEMERIS_TYPE":0,"CLASSIFICATION_TYPE":"U","NORAD_CAT_ID":68018,"ELEMENT_SET_NO":999,"REV_AT_EPOCH":471,"BSTAR":0.00041568456,"MEAN_MOTION_DOT":0.00062322,"MEAN_MOTION_DDOT":0},{"OBJECT_NAME":"STARLINK-36921","OBJECT_ID":"2026-040E","EPOCH":"2026-03-23T22:00:00.999936","MEAN_MOTION":15.7514195,"ECCENTRICITY":0.00014222,"INCLINATION":97.2855,"RA_OF_ASC_NODE":32.0737,"ARG_OF_PERICENTER":101.2592,"MEAN_ANOMALY":317.0976,"EPHEMERIS_TYPE":0,"CLASSIFICATION_TYPE":"U","NORAD_CAT_ID":68019,"ELEMENT_SET_NO":999,"REV_AT_EPOCH":471,"BSTAR":0.00082275444,"MEAN_MOTION_DOT":0.0012413,"MEAN_MOTION_DDOT":0},{"OBJECT_NAME":"STARLINK-36928","OBJECT_ID":"2026-040F","EPOCH":"2026-03-23T22:00:00.999936","MEAN_MOTION":15.75218214,"ECCENTRICITY":0.00016796,"INCLINATION":97.2861,"RA_OF_ASC_NODE":32.0691,"ARG_OF_PERICENTER":59.4729,"MEAN_ANOMALY":352.8834,"EPHEMERIS_TYPE":0,"CLASSIFICATION_TYPE":"U","NORAD_CAT_ID":68020,"ELEMENT_SET_NO":999,"REV_AT_EPOCH":471,"BSTAR":0.00020389706,"MEAN_MOTION_DOT":0.00030429,"MEAN_MOTION_DDOT":0},{"OBJECT_NAME":"STARLINK-36858","OBJECT_ID":"2026-040G","EPOCH":"2026-03-23T20:08:58.852320","MEAN_MOTION":15.75224044,"ECCENTRICITY":0.00018049,"INCLINATION":97.2863,"RA_OF_ASC_NODE":32.1557,"ARG_OF_PERICENTER":91.1416,"MEAN_ANOMALY":269.0056,"EPHEMERIS_TYPE":0,"CLASSIFICATION_TYPE":"U","NORAD_CAT_ID":68021,"ELEMENT_SET_NO":999,"REV_AT_EPOCH":359,"BSTAR":0.0015639673,"MEAN_MOTION_DOT":0.00240182,"MEAN_MOTION_DDOT":0}]
