STARLINK-36889          
1 68006U 26039W   26082.91667824  .00048151  00000+0  82282-3 0  9994
2 68006  43.0001 329.4489 0001281 274.5256 288.7168 15.50535328  5161
STARLINK-36592          
1 68007U 26039X   26082.91667824 -.01960268  00000+0 -39815-1 0  9992
2 68007  42.9996 329.1488 0001450 264.6712  59.8873 15.48762692  5167
STARLINK-36911          
1 68008U 26039Y   26082.91667824  .00045041  00000+0  76988-3 0  9997
2 68008  42.9999 329.2350 0001415 279.7363   9.8956 15.50552624  5162
STARLINK-36956          
1 68009U 26039Z   26082.91667824  .00049961  00000+0  85316-3 0  9998
2 68009  42.9999 329.3011 0002013 267.0037 355.7420 15.50540179  5162
STARLINK-36953          
1 68010U 26039AA  26082.91667824 -.01920006  00000+0 -40943-1 0  9996
2 68010  42.9992 328.7945 0001641 263.2006 204.6056 15.47313000  5160
STARLINK-36991          
1 68011U 26039AB  26082.40343194  .00064610  00000+0  10955-2 0  9990
2 68011  42.9999 332.9770 0002458 277.1227  82.9353 15.50643100  3781
STARLINK-36936          
1 68012U 26039AC  26082.91667824  .00049106  00000+0  83880-3 0  9997
2 68012  42.9999 329.2613 0001662 275.0017   3.1752 15.50538969  5165
STARLINK-36967          
1 68013U 26039AD  26082.97782276  .00094299  00000+0  15916-2 0  9990
2 68013  43.0002 329.5429 0000401 224.4399 135.6429 15.50620635  3872
STARLINK-36985          
1 68014U 26039AE  26082.91667824 -.01896343  00000+0 -38966-1 0  9998
2 68014  42.9992 328.7338 0001315 275.5114 216.5821 15.48329546  5169
STARLINK-36335          
1 68015U 26040A   26082.91667824  .00118530  00000+0  78665-3 0  9995
2 68015  97.2862  32.0592 0001380 115.4701 278.9167 15.75128546  4668
STARLINK-36923          
1 68016U 26040B   26082.91667824 -.00014908  00000+0 -99067-4 0  9992
2 68016  97.2865  32.0626 0001386  75.3548 325.0147 15.75233039  4711
STARLINK-36568          
1 68017U 26040C   26082.91667824 -.00010088  00000+0 -66709-4 0  9995
2 68017  97.2866  32.0638 0001273  89.3215 315.0427 15.75237427  4712
STARLINK-36930          
1 68018U 26040D   26082.91667824  .00062322  00000+0  41568-3 0  9997
2 68018  97.2861  32.0603 0001753 127.0306 269.3151 15.75187835  4716
STARLINK-36921          
1 68019U 26040E   26082.91667824  .00124130  00000+0  82275-3 0  9994
2 68019  97.2855  32.0737 0001422 101.2592 317.0976 15.75141950  4716
STARLINK-36928          
1 68020U 26040F   26082.91667824  .00030429  00000+0  20390-3 0  9993
2 68020  97.2861  32.0691 0001679  59.4729 352.8834 15.75218214  4712
STARLINK-36858          
1 68021U 26040G   26082.83957005  .00240182  00000+0  15640-2 0  9998
2 68021  97.2863  32.1557 0001804  91.1416 269.0056 15.75224044  3591
